[{"OBJECT_NAME":"SATCOM 3 DEB","OBJECT_ID":"1979-101L","EPOCH":"2026-04-02T13:43:27.993792","MEAN_MOTION":1.80670945,"ECCENTRICITY":0.47686428,"INCLINATION":7.7113,"RA_OF_ASC_NODE":171.845,"ARG_OF_PERICENTER":293.0552,"MEAN_ANOMALY":47.3959,"EPHEMERIS_TYPE":0,"CLASSIFICATION_TYPE":"U","NORAD_CAT_ID":32985,"ELEMENT_SET_NO":999,"REV_AT_EPOCH":11928,"BSTAR":0,"MEAN_MOTION_DOT":-5.5e-7,"MEAN_MOTION_DDOT":0},{"OBJECT_NAME":"SATCOM 3 DEB","OBJECT_ID":"1979-101N","EPOCH":"2026-03-25T09:21:22.054176","MEAN_MOTION":1.83456712,"ECCENTRICITY":0.49268169,"INCLINATION":9.8531,"RA_OF_ASC_NODE":36.2257,"ARG_OF_PERICENTER":201.2993,"MEAN_ANOMALY":322.0078,"EPHEMERIS_TYPE":0,"CLASSIFICATION_TYPE":"U","NORAD_CAT_ID":32987,"ELEMENT_SET_NO":999,"REV_AT_EPOCH":12135,"BSTAR":0,"MEAN_MOTION_DOT":-8.9e-7,"MEAN_MOTION_DDOT":0},{"OBJECT_NAME":"ZHONGXING-9","OBJECT_ID":"2008-028A","EPOCH":"2026-04-04T02:48:38.679840","MEAN_MOTION":1.00271858,"ECCENTRICITY":0.00075766,"INCLINATION":0.5799,"RA_OF_ASC_NODE":86.2843,"ARG_OF_PERICENTER":265.1085,"MEAN_ANOMALY":335.5962,"EPHEMERIS_TYPE":0,"CLASSIFICATION_TYPE":"U","NORAD_CAT_ID":33051,"ELEMENT_SET_NO":999,"REV_AT_EPOCH":6529,"BSTAR":0,"MEAN_MOTION_DOT":-2.49e-6,"MEAN_MOTION_DDOT":0},{"OBJECT_NAME":"SKYNET 5C","OBJECT_ID":"2008-030A","EPOCH":"2026-04-04T05:11:26.889216","MEAN_MOTION":1.00272651,"ECCENTRICITY":0.00038735,"INCLINATION":3.6,"RA_OF_ASC_NODE":77.9005,"ARG_OF_PERICENTER":294.2211,"MEAN_ANOMALY":240.4993,"EPHEMERIS_TYPE":0,"CLASSIFICATION_TYPE":"U","NORAD_CAT_ID":33055,"ELEMENT_SET_NO":999,"REV_AT_EPOCH":6521,"BSTAR":0,"MEAN_MOTION_DOT":-1.38e-6,"MEAN_MOTION_DDOT":0},{"OBJECT_NAME":"TURKSAT 3A","OBJECT_ID":"2008-030B","EPOCH":"2026-04-04T04:23:38.704704","MEAN_MOTION":1.00269846,"ECCENTRICITY":0.00050169,"INCLINATION":0.0518,"RA_OF_ASC_NODE":71.4125,"ARG_OF_PERICENTER":326.0525,"MEAN_ANOMALY":262.9437,"EPHEMERIS_TYPE":0,"CLASSIFICATION_TYPE":"U","NORAD_CAT_ID":33056,"ELEMENT_SET_NO":999,"REV_AT_EPOCH":5161,"BSTAR":0,"MEAN_MOTION_DOT":1.46e-6,"MEAN_MOTION_DDOT":0},{"OBJECT_NAME":"SL-23 R/B","OBJECT_ID":"2008-022B","EPOCH":"2026-04-04T05:27:38.799360","MEAN_MOTION":0.95534144,"ECCENTRICITY":0.0544499,"INCLINATION":13.5812,"RA_OF_ASC_NODE":33.0061,"ARG_OF_PERICENTER":54.3287,"MEAN_ANOMALY":135.1617,"EPHEMERIS_TYPE":0,"CLASSIFICATION_TYPE":"U","NORAD_CAT_ID":33059,"ELEMENT_SET_NO":999,"REV_AT_EPOCH":6226,"BSTAR":0,"MEAN_MOTION_DOT":-2.0e-6,"MEAN_MOTION_DDOT":0},{"OBJECT_NAME":"COSMOS 2440","OBJECT_ID":"2008-033A","EPOCH":"2026-04-03T21:57:21.709440","MEAN_MOTION":1.0027435,"ECCENTRICITY":0.00044428,"INCLINATION":10.4419,"RA_OF_ASC_NODE":41.7002,"ARG_OF_PERICENTER":224.3262,"MEAN_ANOMALY":335.6645,"EPHEMERIS_TYPE":0,"CLASSIFICATION_TYPE":"U","NORAD_CAT_ID":33108,"ELEMENT_SET_NO":999,"REV_AT_EPOCH":6504,"BSTAR":0,"MEAN_MOTION_DOT":-1.47e-6,"MEAN_MOTION_DDOT":0},{"OBJECT_NAME":"SL-12 R/B(2)","OBJECT_ID":"2008-033D","EPOCH":"2026-04-03T21:40:03.874368","MEAN_MOTION":1.00281262,"ECCENTRICITY":0.00315901,"INCLINATION":10.4224,"RA_OF_ASC_NODE":41.8347,"ARG_OF_PERICENTER":336.7489,"MEAN_ANOMALY":198.3912,"EPHEMERIS_TYPE":0,"CLASSIFICATION_TYPE":"U","NORAD_CAT_ID":33111,"ELEMENT_SET_NO":999,"REV_AT_EPOCH":6506,"BSTAR":0,"MEAN_MOTION_DOT":3.6e-7,"MEAN_MOTION_DDOT":0},{"OBJECT_NAME":"INTELSAT 25 (IS-25)","OBJECT_ID":"2008-034A","EPOCH":"2026-04-04T02:22:09.363936","MEAN_MOTION":1.00271339,"ECCENTRICITY":0.00029802,"INCLINATION":2.5167,"RA_OF_ASC_NODE":81.1965,"ARG_OF_PERICENTER":251.5433,"MEAN_ANOMALY":223.7214,"EPHEMERIS_TYPE":0,"CLASSIFICATION_TYPE":"U","NORAD_CAT_ID":33153,"ELEMENT_SET_NO":999,"REV_AT_EPOCH":6495,"BSTAR":0,"MEAN_MOTION_DOT":-2.24e-6,"MEAN_MOTION_DDOT":0},{"OBJECT_NAME":"ECHOSTAR 11","OBJECT_ID":"2008-035A","EPOCH":"2026-04-03T22:34:24.347712","MEAN_MOTION":1.00273442,"ECCENTRICITY":0.00026971,"INCLINATION":0.8131,"RA_OF_ASC_NODE":84.9659,"ARG_OF_PERICENTER":268.3952,"MEAN_ANOMALY":67.7105,"EPHEMERIS_TYPE":0,"CLASSIFICATION_TYPE":"U","NORAD_CAT_ID":33207,"ELEMENT_SET_NO":999,"REV_AT_EPOCH":5046,"BSTAR":0,"MEAN_MOTION_DOT":-5.9e-7,"MEAN_MOTION_DDOT":0},{"OBJECT_NAME":"BLOCK DM-SL R/B","OBJECT_ID":"2008-035B","EPOCH":"2026-04-04T01:54:38.655648","MEAN_MOTION":2.26261947,"ECCENTRICITY":0.71346305,"INCLINATION":0.5626,"RA_OF_ASC_NODE":318.601,"ARG_OF_PERICENTER":323.7754,"MEAN_ANOMALY":265.2968,"EPHEMERIS_TYPE":0,"CLASSIFICATION_TYPE":"U","NORAD_CAT_ID":33208,"ELEMENT_SET_NO":999,"REV_AT_EPOCH":14646,"BSTAR":8.7943273e-5,"MEAN_MOTION_DOT":-4.7e-7,"MEAN_MOTION_DDOT":0},{"OBJECT_NAME":"SUPERBIRD-C2","OBJECT_ID":"2008-038A","EPOCH":"2026-04-03T22:01:49.971936","MEAN_MOTION":1.00269749,"ECCENTRICITY":0.00033429,"INCLINATION":2.1699,"RA_OF_ASC_NODE":82.176,"ARG_OF_PERICENTER":0.201,"MEAN_ANOMALY":216.3199,"EPHEMERIS_TYPE":0,"CLASSIFICATION_TYPE":"U","NORAD_CAT_ID":33274,"ELEMENT_SET_NO":999,"REV_AT_EPOCH":10498,"BSTAR":0,"MEAN_MOTION_DOT":-3.07e-6,"MEAN_MOTION_DDOT":0},{"OBJECT_NAME":"INMARSAT 4-F3","OBJECT_ID":"2008-039A","EPOCH":"2026-04-04T06:18:24.867648","MEAN_MOTION":1.00274353,"ECCENTRICITY":0.00027569,"INCLINATION":4.2301,"RA_OF_ASC_NODE":31.3351,"ARG_OF_PERICENTER":346.6497,"MEAN_ANOMALY":171.2209,"EPHEMERIS_TYPE":0,"CLASSIFICATION_TYPE":"U","NORAD_CAT_ID":33278,"ELEMENT_SET_NO":999,"REV_AT_EPOCH":4580,"BSTAR":0,"MEAN_MOTION_DOT":-1.4e-6,"MEAN_MOTION_DDOT":0},{"OBJECT_NAME":"BREEZE-M R/B","OBJECT_ID":"2008-039C","EPOCH":"2026-04-03T23:21:17.483328","MEAN_MOTION":2.01447231,"ECCENTRICITY":0.59608784,"INCLINATION":23.0953,"RA_OF_ASC_NODE":16.3841,"ARG_OF_PERICENTER":332.3709,"MEAN_ANOMALY":5.9005,"EPHEMERIS_TYPE":0,"CLASSIFICATION_TYPE":"U","NORAD_CAT_ID":33280,"ELEMENT_SET_NO":999,"REV_AT_EPOCH":12963,"BSTAR":0,"MEAN_MOTION_DOT":-9.4e-7,"MEAN_MOTION_DDOT":0},{"OBJECT_NAME":"NIMIQ 4","OBJECT_ID":"2008-044A","EPOCH":"2026-04-04T04:53:38.806368","MEAN_MOTION":1.00269785,"ECCENTRICITY":0.00020524,"INCLINATION":0.0218,"RA_OF_ASC_NODE":241.2366,"ARG_OF_PERICENTER":141.759,"MEAN_ANOMALY":160.9169,"EPHEMERIS_TYPE":0,"CLASSIFICATION_TYPE":"U","NORAD_CAT_ID":33373,"ELEMENT_SET_NO":999,"REV_AT_EPOCH":6424,"BSTAR":0,"MEAN_MOTION_DOT":-2.21e-6,"MEAN_MOTION_DDOT":0},{"OBJECT_NAME":"BREEZE-M R/B","OBJECT_ID":"2008-044C","EPOCH":"2026-04-03T21:17:55.641984","MEAN_MOTION":2.03675637,"ECCENTRICITY":0.59871376,"INCLINATION":12.8331,"RA_OF_ASC_NODE":324.0832,"ARG_OF_PERICENTER":296.8998,"MEAN_ANOMALY":14.8233,"EPHEMERIS_TYPE":0,"CLASSIFICATION_TYPE":"U","NORAD_CAT_ID":33375,"ELEMENT_SET_NO":999,"REV_AT_EPOCH":13050,"BSTAR":0,"MEAN_MOTION_DOT":2.07e-6,"MEAN_MOTION_DDOT":0},{"OBJECT_NAME":"GALAXY 19 (G-19)","OBJECT_ID":"2008-045A","EPOCH":"2026-04-04T05:55:44.852160","MEAN_MOTION":1.00272764,"ECCENTRICITY":0.00029125,"INCLINATION":0.0222,"RA_OF_ASC_NODE":247.3484,"ARG_OF_PERICENTER":133.4539,"MEAN_ANOMALY":163.7022,"EPHEMERIS_TYPE":0,"CLASSIFICATION_TYPE":"U","NORAD_CAT_ID":33376,"ELEMENT_SET_NO":999,"REV_AT_EPOCH":6416,"BSTAR":0,"MEAN_MOTION_DOT":-1.4e-6,"MEAN_MOTION_DDOT":0}]
