SATCOM 3 DEB            
1 32985U 79101L   26092.57185178 -.00000055  00000+0  00000+0 0  9995
2 32985   7.7113 171.8450 4768642 293.0552  47.3959  1.80670945119285
SATCOM 3 DEB            
1 32987U 79101N   26084.38983859 -.00000089  00000+0  00000+0 0  9996
2 32987   9.8531  36.2257 4926816 201.2993 322.0078  1.83456712121355
ZHONGXING-9             
1 33051U 08028A   26094.11711435 -.00000249  00000+0  00000+0 0  9998
2 33051   0.5799  86.2843 0007576 265.1085 335.5962  1.00271858 65294
SKYNET 5C               
1 33055U 08030A   26094.21628344 -.00000138  00000+0  00000+0 0  9999
2 33055   3.6000  77.9005 0003873 294.2211 240.4993  1.00272651 65216
TURKSAT 3A              
1 33056U 08030B   26094.18308686  .00000146  00000+0  00000+0 0  9998
2 33056   0.0518  71.4125 0005016 326.0525 262.9437  1.00269846 51610
SL-23 R/B               
1 33059U 08022B   26094.22753240 -.00000200  00000+0  00000+0 0  9999
2 33059  13.5812  33.0061 0544499  54.3287 135.1617  0.95534144 62264
COSMOS 2440             
1 33108U 08033A   26093.91483460 -.00000147  00000+0  00000+0 0  9995
2 33108  10.4419  41.7002 0004442 224.3262 335.6645  1.00274350 65044
SL-12 R/B(2)            
1 33111U 08033D   26093.90282262  .00000036  00000+0  00000+0 0  9991
2 33111  10.4224  41.8347 0031590 336.7489 198.3912  1.00281262 65061
INTELSAT 25 (IS-25)     
1 33153U 08034A   26094.09871949 -.00000224  00000+0  00000+0 0  9995
2 33153   2.5167  81.1965 0002980 251.5433 223.7214  1.00271339 64951
ECHOSTAR 11             
1 33207U 08035A   26093.94055958 -.00000059  00000+0  00000+0 0  9999
2 33207   0.8131  84.9659 0002697 268.3952  67.7105  1.00273442 50464
BLOCK DM-SL R/B         
1 33208U 08035B   26094.07961407 -.00000047  00000+0  87943-4 0  9993
2 33208   0.5626 318.6010 7134630 323.7754 265.2968  2.26261947146469
SUPERBIRD-C2            
1 33274U 08038A   26093.91793949 -.00000307  00000+0  00000+0 0  9998
2 33274   2.1699  82.1760 0003342   0.2010 216.3199  1.00269749104988
INMARSAT 4-F3           
1 33278U 08039A   26094.26278782 -.00000140  00000+0  00000+0 0  9990
2 33278   4.2301  31.3351 0002756 346.6497 171.2209  1.00274353 45804
BREEZE-M R/B            
1 33280U 08039C   26093.97311902 -.00000094  00000+0  00000+0 0  9990
2 33280  23.0953  16.3841 5960878 332.3709   5.9005  2.01447231129637
NIMIQ 4                 
1 33373U 08044A   26094.20392137 -.00000221  00000+0  00000+0 0  9997
2 33373   0.0218 241.2366 0002052 141.7590 160.9169  1.00269785 64248
BREEZE-M R/B            
1 33375U 08044C   26093.88744956  .00000207  00000+0  00000+0 0  9995
2 33375  12.8331 324.0832 5987137 296.8998  14.8233  2.03675637130503
GALAXY 19 (G-19)        
1 33376U 08045A   26094.24704690 -.00000140  00000+0  00000+0 0  9996
2 33376   0.0222 247.3484 0002912 133.4539 163.7022  1.00272764 64161
